H1 CPF 01  gfz 2021 04 23 12  6132 terrasarx 
H2 0702601  6201 31698    2021 04 23 12 59 42 2021 04 28 00 00 42   120 1 1  0 0 0
H9
10 0 59330  35982.000000  0   -3571540.377   5669347.060  -1611379.824
10 0 59330  36102.000000  0   -3498180.297   5892758.335   -720142.022
10 0 59330  36222.000000  0   -3360730.419   6011402.656    183763.592
10 0 59330  36342.000000  0   -3163420.343   6022064.181   1084433.825
10 0 59330  36462.000000  0   -2911579.912   5923518.217   1966008.781
10 0 59330  36582.000000  0   -2611508.441   5716572.336   2812961.704
10 0 59330  36702.000000  0   -2270325.599   5404064.999   3610380.228
10 0 59330  36822.000000  0   -1895808.192   4990824.240   4344234.097
10 0 59330  36942.000000  0   -1496216.391   4483587.101   5001624.978
10 0 59330  37062.000000  0   -1080112.845   3890882.186   5571013.843
10 0 59330  37182.000000  0    -656180.146   3222877.415   6042420.538
10 0 59330  37302.000000  0    -233041.085   2491197.577   6407593.766
10 0 59330  37422.000000  0     180915.192   1708716.525   6660148.972
10 0 59330  37542.000000  0     577698.232    889327.213   6795674.738
10 0 59330  37662.000000  0     949869.364     47693.183   6811804.093
10 0 59330  37782.000000  0    1290679.975   -801012.592   6708253.507
10 0 59330  37902.000000  0    1594193.445  -1641380.887   6486828.449
10 0 59330  38022.000000  0    1855388.870  -2458045.267   6151394.217
10 0 59330  38142.000000  0    2070244.831  -3235964.071   5707813.261
10 0 59330  38262.000000  0    2235802.009  -3960700.104   5163847.957
10 0 59330  38382.000000  0    2350203.013  -4618692.099   4529030.060
10 0 59330  38502.000000  0    2412710.128  -5197514.330   3814499.566
10 0 59330  38622.000000  0    2423700.075  -5686119.720   3032812.170
10 0 59330  38742.000000  0    2384633.378  -6075059.695   2197718.961
10 0 59330  38862.000000  0    2298001.054  -6356674.352   1323921.485
10 0 59330  38982.000000  0    2167249.955  -6525248.728    426808.805
10 0 59330  39102.000000  0    1996687.556  -6577134.040   -477819.878
10 0 59330  39222.000000  0    1791368.925  -6510827.667  -1374043.846
10 0 59330  39342.000000  0    1556966.195  -6327006.918  -2246110.847
10 0 59330  39462.000000  0    1299626.893  -6028520.432  -3078721.143
10 0 59330  39582.000000  0    1025825.040  -5620333.084  -3857300.959
10 0 59330  39702.000000  0     742209.451  -5109431.791  -4568257.630
10 0 59330  39822.000000  0     455451.092  -4504693.508  -5199213.860
10 0 59330  39942.000000  0     172094.220  -3816719.629  -5739216.441
10 0 59330  40062.000000  0    -101585.619  -3057640.373  -6178917.224
10 0 59330  40182.000000  0    -359713.753  -2240894.286  -6510723.679
10 0 59330  40302.000000  0    -596936.455  -1380987.525  -6728918.500
10 0 59330  40422.000000  0    -808526.844   -493237.556  -6829748.354
10 0 59330  40542.000000  0    -990474.944    406496.132  -6811481.441
10 0 59330  40662.000000  0   -1139561.178   1302088.581  -6674432.749
10 0 59330  40782.000000  0   -1253412.060   2177430.931  -6420959.097
10 0 59330  40902.000000  0   -1330537.209   3016712.774  -6055423.411
10 0 59330  41022.000000  0   -1370347.890   3804703.989  -5584128.953
10 0 59330  41142.000000  0   -1373156.073   4527029.950  -5015220.825
10 0 59330  41262.000000  0   -1340154.380   5170436.810  -4358557.099
10 0 59330  41382.000000  0   -1273377.001   5723041.498  -3625547.899
10 0 59330  41502.000000  0   -1175641.514   6174559.831  -2828965.025
10 0 59330  41622.000000  0   -1050472.961   6516508.810  -1982725.686
10 0 59330  41742.000000  0    -902011.469   6742378.511  -1101651.132
10 0 59330  41862.000000  0    -734905.693   6847766.843   -201205.806
10 0 59330  41982.000000  0    -554193.721   6830475.833    702778.624
10 0 59330  42102.000000  0    -365174.928   6690564.152   1594390.530
10 0 59330  42222.000000  0    -173276.281   6430351.476   2457929.009
10 0 59330  42342.000000  0      16083.115   6054376.487   3278188.016
10 0 59330  42462.000000  0     197626.185   5569312.508   4040729.569
10 0 59330  42582.000000  0     366347.539   4983844.108   4732143.638
10 0 59330  42702.000000  0     517635.642   4308497.812   5340288.839
10 0 59330  42822.000000  0     647384.070   3555441.648   5854499.575
10 0 59330  42942.000000  0     752090.170   2738259.092   6265770.208
10 0 59330  43062.000000  0     828937.404   1871696.443   6566907.262
10 0 59330  43182.000000  0     875861.286    971392.138   6752649.284
10 0 59330  43302.000000  0     891597.539     53592.090   6819752.619
10 0 59330  43422.000000  0     875711.625   -865142.229   6767044.549
10 0 59330  43542.000000  0     828608.933  -1768232.358   6595443.782
10 0 59330  43662.000000  0     751525.500  -2639381.709   6307945.780
10 0 59330  43782.000000  0     646499.417  -3462871.223   5909574.026
10 0 59330  43902.000000  0     516323.030  -4223844.692   5407294.859
10 0 59330  44022.000000  0     364478.491  -4908578.817   4809901.680
10 0 59330  44142.000000  0     195056.855  -5504736.975   4127868.690
10 0 59330  44262.000000  0      12660.964  -6001601.990   3373172.035
10 0 59330  44382.000000  0    -177705.537  -6390279.402   2559081.078
10 0 59330  44502.000000  0    -370759.947  -6663866.446   1699923.305
10 0 59330  44622.000000  0    -561070.410  -6817583.085    810829.418
10 0 59330  44742.000000  0    -743191.021  -6848863.824    -92540.585
10 0 59330  44862.000000  0    -911798.427  -6757402.148   -994283.369
10 0 59330  44982.000000  0   -1061825.453  -6545148.562  -1878541.284
10 0 59330  45102.000000  0   -1188589.123  -6216264.170  -2729788.390
10 0 59330  45222.000000  0   -1287910.272  -5777031.223  -3533108.869
10 0 59330  45342.000000  0   -1356221.489  -5235721.874  -4274461.626
10 0 59330  45462.000000  0   -1390660.398  -4602429.316  -4940924.351
10 0 59330  45582.000000  0   -1389146.677  -3888867.911  -5520912.968
10 0 59330  45702.000000  0   -1350441.305  -3108147.256  -6004374.671
10 0 59330  45822.000000  0   -1274186.957  -2274524.650  -6382952.233
10 0 59330  45942.000000  0   -1160929.129  -1403141.040  -6650116.931
10 0 59330  46062.000000  0   -1012118.260   -509746.815  -6801269.943
10 0 59330  46182.000000  0    -830092.840    389579.063  -6833812.924
10 0 59330  46302.000000  0    -618042.677   1278711.775  -6747186.845
10 0 59330  46422.000000  0    -379954.263   2141762.091  -6542880.388
10 0 59330  46542.000000  0    -120539.072   2963353.072  -6224407.806
10 0 59330  46662.000000  0     154856.016   3728890.288  -5797256.582
10 0 59330  46782.000000  0     440354.536   4424820.047  -5268801.744
10 0 59330  46902.000000  0     729669.666   5038870.958  -4648189.889
10 0 59330  47022.000000  0    1016236.023   5560277.126  -3946192.354
10 0 59330  47142.000000  0    1293351.660   5979976.257  -3175027.381
10 0 59330  47262.000000  0    1554326.962   6290778.439  -2348154.603
10 0 59330  47382.000000  0    1792637.509   6487502.072  -1480043.626
10 0 59330  47502.000000  0    2002077.433   6567072.144   -585919.881
10 0 59330  47622.000000  0    2176908.939   6528576.725    318507.192
10 0 59330  47742.000000  0    2312003.756   6373280.194   1217326.859
10 0 59330  47862.000000  0    2402973.421   6104593.105   2094714.729
10 0 59330  47982.000000  0    2446284.744   5727999.112   2935219.425
10 0 59330  48102.000000  0    2439358.041   5250941.151   3724042.246
10 0 59330  48222.000000  0    2380644.956   4682669.233   4447304.390
10 0 59330  48342.000000  0    2269683.440   4034052.317   5092296.524
10 0 59330  48462.000000  0    2107128.098   3317358.721   5647700.502
10 0 59330  48582.000000  0    1894758.640   2546017.303   6103783.270
10 0 59330  48702.000000  0    1635464.740   1734360.262   6452563.484
10 0 59330  48822.000000  0    1333206.860    897351.442   6687945.578
10 0 59330  48942.000000  0     992954.845     50308.098   6805818.918
10 0 59330  49062.000000  0     620605.942   -791377.940   6804125.302
10 0 59330  49182.000000  0     222882.377  -1612519.988   6682894.215
10 0 59330  49302.000000  0    -192790.189  -2398410.461   6444242.142
10 0 59330  49422.000000  0    -618421.100  -3135084.983   6092337.446
10 0 59330  49542.000000  0   -1045606.251  -3809571.302   5633329.768
10 0 59330  49662.000000  0   -1465690.905  -4410119.018   5075248.879
10 0 59330  49782.000000  0   -1869943.990  -4926410.016   4427873.072
10 0 59330  49902.000000  0   -2249739.628  -5349745.118   3702563.934
10 0 59330  50022.000000  0   -2596741.111  -5673200.152   2912068.562
10 0 59330  50142.000000  0   -2903082.341  -5891746.187   2070294.554
10 0 59330  50262.000000  0   -3161543.047  -6002333.492   1192062.604
10 0 59330  50382.000000  0   -3365713.694  -6003936.694    292840.005
10 0 59330  50502.000000  0   -3510145.667  -5897559.291   -611539.290
10 0 59330  50622.000000  0   -3590482.939  -5686197.250  -1505162.513
10 0 59330  50742.000000  0   -3603571.626  -5374761.727  -2372327.093
10 0 59330  50862.000000  0   -3547544.763  -4969963.400  -3197823.943
10 0 59330  50982.000000  0   -3421879.763  -4480161.746  -3967208.598
10 0 59330  51102.000000  0   -3227427.734  -3915184.621  -4667053.888
10 0 59330  51222.000000  0   -2966415.256  -3286123.566  -5285180.474
10 0 59330  51342.000000  0   -2642419.094  -2605109.288  -5810861.663
10 0 59330  51462.000000  0   -2260314.855  -1885073.250  -6234999.964
10 0 59330  51582.000000  0   -1826200.162  -1139499.946  -6550274.191
10 0 59330  51702.000000  0   -1347294.555   -382174.627  -6751253.967
10 0 59330  51822.000000  0    -831819.533    373067.907  -6834482.102
10 0 59330  51942.000000  0    -288859.598   1112589.637  -6798527.471
10 0 59330  52062.000000  0     271794.241   1823189.247  -6644006.637
10 0 59330  52182.000000  0     839815.357   2492331.586  -6373575.846
10 0 59330  52302.000000  0    1404528.197   3108365.671  -5991891.667
10 0 59330  52422.000000  0    1955104.575   3660726.435  -5505538.373
99
